[{"OBJECT_NAME":"STARLINK-34031","OBJECT_ID":"2025-095Y","EPOCH":"2026-03-09T08:11:45.127392","MEAN_MOTION":15.27590409,"ECCENTRICITY":0.00025574,"INCLINATION":43.0013,"RA_OF_ASC_NODE":178.2621,"ARG_OF_PERICENTER":285.2493,"MEAN_ANOMALY":74.8075,"EPHEMERIS_TYPE":0,"CLASSIFICATION_TYPE":"U","NORAD_CAT_ID":63912,"ELEMENT_SET_NO":999,"REV_AT_EPOCH":4772,"BSTAR":0.0013314427,"MEAN_MOTION_DOT":0.00036571,"MEAN_MOTION_DDOT":0},{"OBJECT_NAME":"GEOSCAN 6 (RS92S6)","OBJECT_ID":"2025-155D","EPOCH":"2026-03-09T21:52:39.201312","MEAN_MOTION":15.27985277,"ECCENTRICITY":0.00087677,"INCLINATION":97.4466,"RA_OF_ASC_NODE":37.2933,"ARG_OF_PERICENTER":153.7679,"MEAN_ANOMALY":206.4006,"EPHEMERIS_TYPE":0,"CLASSIFICATION_TYPE":"U","NORAD_CAT_ID":64879,"ELEMENT_SET_NO":999,"REV_AT_EPOCH":6559,"BSTAR":0.00053762354,"MEAN_MOTION_DOT":0.00014633,"MEAN_MOTION_DDOT":0}]
